IRIDIUM 159             
1 43578U 18061K   24238.49836229  .00000509  00000+0  17467-3 0  9996
2 43578  86.4013 332.8216 0002275  96.6910 263.4544 14.34217142318686
IRIDIUM 180             
1 43922U 19002A   24238.49786609  .00000550  00000+0  18923-3 0  9995
2 43922  86.3917 269.6789 0002435  94.1490 265.9984 14.34220620294297
IRIDIUM 176             
1 43923U 19002B   24238.37685555  .00002086  00000+0  32687-3 0  9990
2 43923  86.6046 269.7458 0002580  95.2213 264.9299 14.72250031302024
IRIDIUM 168             
1 43924U 19002C   24238.35197885  .00000479  00000+0  16380-3 0  9999
2 43924  86.3919 269.7987 0002338  94.2510 265.8953 14.34219773294256
IRIDIUM 173             
1 43925U 19002D   24238.47884162  .00000554  00000+0  19059-3 0  9994
2 43925  86.3916 269.6616 0002394  92.4950 267.6520 14.34220140294263
IRIDIUM 169             
1 43926U 19002E   24238.61151887  .00000304  00000+0  92766-4 0  9992
2 43926  86.4218 301.2503 0002998  54.2019 305.9458 14.38594295295255
IRIDIUM 172             
1 43927U 19002F   24238.61203460  .00000550  00000+0  18928-3 0  9998
2 43927  86.3916 269.6117 0002245  92.6715 267.4737 14.34220401294287
IRIDIUM 175             
1 43928U 19002G   24238.43948636  .00000972  00000+0  15011-3 0  9998
2 43928  86.1473 238.9473 0002394  86.9225 273.2266 14.72251068302024
